{
  "norad_id": 57290,
  "name": "STARLINK-30198",
  "history": [
    {
      "epoch": "2026-03-28T18:18:27.309312Z",
      "apogee_km": 506.1413277749316,
      "perigee_km": 504.3179239557403,
      "latitude_deg": -9.810283820036737e-06,
      "longitude_deg": 15.577099025554258,
      "height_km": 504.72865648524487,
      "semi_major_axis_km": 6883.366625865336,
      "eccentricity": 0.00013245,
      "inclination_deg": 42.9943,
      "raan_deg": 116.3695,
      "arg_perigee_deg": 287.7333,
      "mean_anomaly_deg": 72.3371,
      "mean_motion_rev_day": 15.20202384
    },
    {
      "epoch": "2026-03-30T01:50:42.569376Z",
      "apogee_km": 505.9946511558219,
      "perigee_km": 504.2697038999322,
      "latitude_deg": -1.007125492006532e-05,
      "longitude_deg": -106.1203864173388,
      "height_km": 504.62460505157236,
      "semi_major_axis_km": 6883.269177527876,
      "eccentricity": 0.0001253,
      "inclination_deg": 42.9939,
      "raan_deg": 109.0308,
      "arg_perigee_deg": 289.2382,
      "mean_anomaly_deg": 70.8331,
      "mean_motion_rev_day": 15.20234667
    },
    {
      "epoch": "2026-03-30T01:50:42.570240Z",
      "apogee_km": 505.99485765389545,
      "perigee_km": 504.2694974018568,
      "latitude_deg": -7.843638633104832e-06,
      "longitude_deg": -106.12038765102763,
      "height_km": 504.6245370208002,
      "semi_major_axis_km": 6883.269177527876,
      "eccentricity": 0.00012533,
      "inclination_deg": 42.9939,
      "raan_deg": 109.0308,
      "arg_perigee_deg": 289.2382,
      "mean_anomaly_deg": 70.8331,
      "mean_motion_rev_day": 15.20234667
    },
    {
      "epoch": "2026-03-30T08:09:09.374976Z",
      "apogee_km": 505.9863608446449,
      "perigee_km": 504.2516426670827,
      "latitude_deg": -4.031613547398403e-05,
      "longitude_deg": 157.54105402202197,
      "height_km": 504.60630646423033,
      "semi_major_axis_km": 6883.2560017558635,
      "eccentricity": 0.00012601,
      "inclination_deg": 42.994,
      "raan_deg": 107.563,
      "arg_perigee_deg": 289.4855,
      "mean_anomaly_deg": 70.5857,
      "mean_motion_rev_day": 15.20239032
    },
    {
      "epoch": "2026-03-30T17:36:49.473216Z",
      "apogee_km": 505.9394492579286,
      "perigee_km": 504.2562230110998,
      "latitude_deg": -4.842955712776513e-06,
      "longitude_deg": 13.03386116879942,
      "height_km": 504.60329018864115,
      "semi_major_axis_km": 6883.234836134514,
      "eccentricity": 0.00012227,
      "inclination_deg": 42.9936,
      "raan_deg": 105.3614,
      "arg_perigee_deg": 288.7909,
      "mean_anomaly_deg": 71.2807,
      "mean_motion_rev_day": 15.20246044
    },
    {
      "epoch": "2026-03-31T17:16:00.085152Z",
      "apogee_km": 506.0447660402797,
      "perigee_km": 504.2330878163111,
      "latitude_deg": 1.3167773107257067e-05,
      "longitude_deg": 11.762673251120404,
      "height_km": 504.5769474590385,
      "semi_major_axis_km": 6883.275926928295,
      "eccentricity": 0.0001316,
      "inclination_deg": 42.9929,
      "raan_deg": 99.8558,
      "arg_perigee_deg": 291.9442,
      "mean_anomaly_deg": 68.1267,
      "mean_motion_rev_day": 15.20232431
    },
    {
      "epoch": "2026-04-01T16:55:10.181280Z",
      "apogee_km": 506.0328511069465,
      "perigee_km": 504.1647409119096,
      "latitude_deg": -5.1783915062049377e-05,
      "longitude_deg": 10.494951866557612,
      "height_km": 504.50764276733344,
      "semi_major_axis_km": 6883.235796009428,
      "eccentricity": 0.0001357,
      "inclination_deg": 42.9935,
      "raan_deg": 94.3516,
      "arg_perigee_deg": 293.1883,
      "mean_anomaly_deg": 66.8822,
      "mean_motion_rev_day": 15.20245726
    },
    {
      "epoch": "2026-04-02T16:34:19.838496Z",
      "apogee_km": 505.7495546159016,
      "perigee_km": 504.3778703779162,
      "latitude_deg": -1.4958363041123925e-05,
      "longitude_deg": 9.228972438677157,
      "height_km": 504.50371148181074,
      "semi_major_axis_km": 6883.200712496909,
      "eccentricity": 9.964e-05,
      "inclination_deg": 42.9945,
      "raan_deg": 88.8472,
      "arg_perigee_deg": 299.3735,
      "mean_anomaly_deg": 60.7014,
      "mean_motion_rev_day": 15.20257349
    },
    {
      "epoch": "2026-04-03T16:13:27.886080Z",
      "apogee_km": 505.57491747627864,
      "perigee_km": 504.3579847861174,
      "latitude_deg": -9.951728473213152e-06,
      "longitude_deg": 7.9692835502534685,
      "height_km": 504.44737372102844,
      "semi_major_axis_km": 6883.103451131197,
      "eccentricity": 8.84e-05,
      "inclination_deg": 42.9933,
      "raan_deg": 83.3424,
      "arg_perigee_deg": 299.0283,
      "mean_anomaly_deg": 61.0477,
      "mean_motion_rev_day": 15.20289572
    },
    {
      "epoch": "2026-04-04T07:59:32.155584Z",
      "apogee_km": 505.41679347230547,
      "perigee_km": 504.33423326420416,
      "latitude_deg": 4.603456598548842e-06,
      "longitude_deg": 127.13384643794006,
      "height_km": 504.3887927807084,
      "semi_major_axis_km": 6883.012513368255,
      "eccentricity": 7.864e-05,
      "inclination_deg": 42.9924,
      "raan_deg": 79.6723,
      "arg_perigee_deg": 299.0352,
      "mean_anomaly_deg": 61.0418,
      "mean_motion_rev_day": 15.20319701
    },
    {
      "epoch": "2026-04-05T07:38:35.651616Z",
      "apogee_km": 505.13697671409227,
      "perigee_km": 504.24275984736505,
      "latitude_deg": -2.1925266205293975e-05,
      "longitude_deg": 125.89323926505325,
      "height_km": 504.29022272215195,
      "semi_major_axis_km": 6882.826868280728,
      "eccentricity": 6.496e-05,
      "inclination_deg": 42.9932,
      "raan_deg": 74.1676,
      "arg_perigee_deg": 293.1287,
      "mean_anomaly_deg": 66.9493,
      "mean_motion_rev_day": 15.20381211
    },
    {
      "epoch": "2026-04-05T15:31:36.008256Z",
      "apogee_km": 504.9529804481572,
      "perigee_km": 504.2770941980925,
      "latitude_deg": 1.7903912591432362e-05,
      "longitude_deg": 5.48343409783939,
      "height_km": 504.322274994831,
      "semi_major_axis_km": 6882.752037323125,
      "eccentricity": 4.91e-05,
      "inclination_deg": 42.9945,
      "raan_deg": 72.333,
      "arg_perigee_deg": 281.7383,
      "mean_anomaly_deg": 78.3411,
      "mean_motion_rev_day": 15.20406006
    },
    {
      "epoch": "2026-04-05T15:31:36.009120Z",
      "apogee_km": 504.9531181031971,
      "perigee_km": 504.2769565430517,
      "latitude_deg": 1.9443650986902395e-05,
      "longitude_deg": 5.483432130367907,
      "height_km": 504.3222469940934,
      "semi_major_axis_km": 6882.752037323125,
      "eccentricity": 4.912e-05,
      "inclination_deg": 42.9945,
      "raan_deg": 72.333,
      "arg_perigee_deg": 281.7383,
      "mean_anomaly_deg": 78.3411,
      "mean_motion_rev_day": 15.20406006
    },
    {
      "epoch": "2026-04-07T05:21:53.833536Z",
      "apogee_km": 504.46014817617015,
      "perigee_km": 503.6704842824065,
      "latitude_deg": -2.241266862860156e-06,
      "longitude_deg": 147.54677370141502,
      "height_km": 504.14007982521565,
      "semi_major_axis_km": 6882.202316229288,
      "eccentricity": 5.737e-05,
      "inclination_deg": 42.9931,
      "raan_deg": 63.5246,
      "arg_perigee_deg": 220.7526,
      "mean_anomaly_deg": 139.328,
      "mean_motion_rev_day": 15.20588175
    },
    {
      "epoch": "2026-04-08T14:28:11.208864Z",
      "apogee_km": 504.2532771637725,
      "perigee_km": 503.02377914791214,
      "latitude_deg": -4.3823020826470625e-05,
      "longitude_deg": 1.9064610941051674,
      "height_km": 503.91063636394233,
      "semi_major_axis_km": 6881.775528155842,
      "eccentricity": 8.933e-05,
      "inclination_deg": 42.9934,
      "raan_deg": 55.8163,
      "arg_perigee_deg": 216.1648,
      "mean_anomaly_deg": 143.914,
      "mean_motion_rev_day": 15.20729631
    },
    {
      "epoch": "2026-04-09T14:06:51.138432Z",
      "apogee_km": 504.1860825179965,
      "perigee_km": 502.50149602078363,
      "latitude_deg": -1.0000874090667784e-05,
      "longitude_deg": 0.761779010374501,
      "height_km": 503.8032216837045,
      "semi_major_axis_km": 6881.48078926939,
      "eccentricity": 0.0001224,
      "inclination_deg": 42.9938,
      "raan_deg": 50.309,
      "arg_perigee_deg": 215.7661,
      "mean_anomaly_deg": 144.3106,
      "mean_motion_rev_day": 15.20827333
    },
    {
      "epoch": "2026-04-10T04:18:00.802080Z",
      "apogee_km": 504.2611937320953,
      "perigee_km": 502.1370628960076,
      "latitude_deg": 2.2461446268993382e-05,
      "longitude_deg": 144.08304776693265,
      "height_km": 503.84500488970144,
      "semi_major_axis_km": 6881.336128314051,
      "eccentricity": 0.00015434,
      "inclination_deg": 42.9947,
      "raan_deg": 47.0031,
      "arg_perigee_deg": 215.0305,
      "mean_anomaly_deg": 145.0443,
      "mean_motion_rev_day": 15.2087529
    },
    {
      "epoch": "2026-04-11T21:16:49.999584Z",
      "apogee_km": 503.9348520888898,
      "perigee_km": 501.94484466433914,
      "latitude_deg": -4.1308252853612375e-05,
      "longitude_deg": -121.85051565034968,
      "height_km": 503.47786575958133,
      "semi_major_axis_km": 6881.076848376614,
      "eccentricity": 0.0001446,
      "inclination_deg": 42.9946,
      "raan_deg": 37.4576,
      "arg_perigee_deg": 220.0403,
      "mean_anomaly_deg": 140.0339,
      "mean_motion_rev_day": 15.20961251
    },
    {
      "epoch": "2026-04-13T04:48:06.014304Z",
      "apogee_km": 503.9869551321426,
      "perigee_km": 501.36770434938353,
      "latitude_deg": 2.136782919133162e-05,
      "longitude_deg": 116.69369643274509,
      "height_km": 503.42899591910503,
      "semi_major_axis_km": 6880.814329740763,
      "eccentricity": 0.00019033,
      "inclination_deg": 42.9949,
      "raan_deg": 30.113,
      "arg_perigee_deg": 221.8762,
      "mean_anomaly_deg": 138.1942,
      "mean_motion_rev_day": 15.21048294
    }
  ]
}